[{"OBJECT_NAME":"STARLINK-33589","OBJECT_ID":"2025-015B","EPOCH":"2026-03-09T22:12:35.273664","MEAN_MOTION":15.30213238,"ECCENTRICITY":0.0001719,"INCLINATION":53.1574,"RA_OF_ASC_NODE":321.6212,"ARG_OF_PERICENTER":134.9541,"MEAN_ANOMALY":225.1599,"EPHEMERIS_TYPE":0,"CLASSIFICATION_TYPE":"U","NORAD_CAT_ID":62759,"ELEMENT_SET_NO":999,"REV_AT_EPOCH":6375,"BSTAR":0.00086930504,"MEAN_MOTION_DOT":0.00025486,"MEAN_MOTION_DDOT":0},{"OBJECT_NAME":"OBJECT D","OBJECT_ID":"2021-102D","EPOCH":"2026-03-09T14:47:14.426880","MEAN_MOTION":15.2846442,"ECCENTRICITY":0.0009157,"INCLINATION":97.3342,"RA_OF_ASC_NODE":112.2633,"ARG_OF_PERICENTER":187.6206,"MEAN_ANOMALY":172.4897,"EPHEMERIS_TYPE":0,"CLASSIFICATION_TYPE":"U","NORAD_CAT_ID":49398,"ELEMENT_SET_NO":999,"REV_AT_EPOCH":23880,"BSTAR":0.00046011,"MEAN_MOTION_DOT":0.00012697,"MEAN_MOTION_DDOT":0}]
